ISS (ZARYA)             
1 25544U 98067A   26092.13346771  .00010892  00000+0  20755-3 0  9992
2 25544  51.6331 316.4579 0006239 262.1298  97.8982 15.48713693559960
POISK                   
1 36086U 09060A   26092.13346771  .00010892  00000+0  20755-3 0  9990
2 36086  51.6331 316.4579 0006239 262.1298  97.8982 15.48713693559581
CSS (TIANHE)            
1 48274U 21035A   26091.36022109  .00024066  00000+0  27286-3 0  9992
2 48274  41.4670  70.0996 0003721  85.9086 274.2179 15.61804306281152
ISS (NAUKA)             
1 49044U 21066A   26092.13346771  .00010892  00000+0  20755-3 0  9998
2 49044  51.6331 316.4579 0006239 262.1298  97.8982 15.48713693559624
FREGAT DEB              
1 49271U 11037PF  26091.40451252  .00007093  00000+0  10238-1 0  9999
2 49271  51.6434 232.5447 0958506 111.4864 259.0863 12.40826791215510
CSS (WENTIAN)           
1 53239U 22085A   26091.36022109  .00024066  00000+0  27286-3 0  9995
2 53239  41.4670  70.0996 0003721  85.9086 274.2179 15.61804306281159
CSS (MENGTIAN)          
1 54216U 22143A   26091.36022109  .00024066  00000+0  27286-3 0  9996
2 54216  41.4670  70.0996 0003721  85.9086 274.2179 15.61804306281155
TIANZHOU-9              
1 64786U 25149A   26091.36022109  .00024066  00000+0  27286-3 0  9998
2 64786  41.4670  70.0996 0003721  85.9086 274.2179 15.61804306281158
PROGRESS-MS 32          
1 65586U 25204A   26092.13346771  .00010892  00000+0  20755-3 0  9995
2 65586  51.6331 316.4579 0006239 262.1298  97.8982 15.48713693554505
YOTSUBA-KULOVER         
1 65941U 98067XN  26091.94332328  .00519435  12115-3  12849-2 0  9993
2 65941  51.6161 295.5478 0007166 248.8797 111.1445 15.95323178 27192
BOTAN                   
1 65943U 98067XQ  26092.27076803  .00550894  13410-3  14304-2 0  9996
2 65943  51.6178 294.0102 0007240 246.3649 113.6599 15.94418500 27248
HRC MONOBLOCK CAMERA    
1 66052U 98067XR  26091.96657712  .00057662  00000+0  58260-3 0  9999
2 66052  51.6270 307.8382 0003818 206.2163 153.8640 15.64748544 26039
HTV-X1                  
1 66174U 25241A   26092.32216159  .00002012  00000+0  74807-4 0  9990
2 66174  51.6372 319.1601 0007232 263.7967  96.2190 15.32498869 24564
SZ-21 MODULE            
1 66515U 25246C   26092.23545067  .00052107  00000+0  41273-3 0  9997
2 66515  41.4744  58.2163 0002689 222.0292 138.0345 15.70445326 21776
SHENZHOU-22             
1 66645U 25272A   26091.36022109  .00024066  00000+0  27286-3 0  9991
2 66645  41.4670  70.0996 0003721  85.9086 274.2179 15.61804306281154
SOYUZ-MS 28             
1 66664U 25275A   26092.13346771  .00010892  00000+0  20755-3 0  9991
2 66664  51.6331 316.4579 0006239 262.1298  97.8982 15.48713693559867
